[{"OBJECT_NAME":"FENGYUN 3E","OBJECT_ID":"2021-062A","EPOCH":"2026-03-09T23:36:50.973120","MEAN_MOTION":14.19894265,"ECCENTRICITY":0.00022297,"INCLINATION":98.7518,"RA_OF_ASC_NODE":73.4944,"ARG_OF_PERICENTER":41.3749,"MEAN_ANOMALY":318.7596,"EPHEMERIS_TYPE":0,"CLASSIFICATION_TYPE":"U","NORAD_CAT_ID":49008,"ELEMENT_SET_NO":999,"REV_AT_EPOCH":24250,"BSTAR":7.5486824e-5,"MEAN_MOTION_DOT":1.16e-6,"MEAN_MOTION_DDOT":0},{"OBJECT_NAME":"COSMOS 1275 DEB","OBJECT_ID":"1981-053DR","EPOCH":"2026-03-09T15:12:08.173152","MEAN_MOTION":14.19759018,"ECCENTRICITY":0.0039318,"INCLINATION":82.9209,"RA_OF_ASC_NODE":279.8898,"ARG_OF_PERICENTER":188.86,"MEAN_ANOMALY":171.1892,"EPHEMERIS_TYPE":0,"CLASSIFICATION_TYPE":"U","NORAD_CAT_ID":12772,"ELEMENT_SET_NO":999,"REV_AT_EPOCH":26470,"BSTAR":0.0016306,"MEAN_MOTION_DOT":3.494e-5,"MEAN_MOTION_DDOT":0}]
